FENGYUN 1C DEB          
1 32454U 99025DBS 17339.06062039  .00001525  00000-0  61713-3 0  9996
2 32454  98.5262  80.5263 0293523 270.9241  85.8316 14.08448362532961
